[{"OBJECT_NAME":"STARLINK-3398","OBJECT_ID":"2022-005S","EPOCH":"2026-03-09T22:05:57.854400","MEAN_MOTION":15.088389,"ECCENTRICITY":0.00014316,"INCLINATION":53.2187,"RA_OF_ASC_NODE":288.0944,"ARG_OF_PERICENTER":87.3193,"MEAN_ANOMALY":272.7963,"EPHEMERIS_TYPE":0,"CLASSIFICATION_TYPE":"U","NORAD_CAT_ID":51120,"ELEMENT_SET_NO":999,"REV_AT_EPOCH":22891,"BSTAR":8.364056e-6,"MEAN_MOTION_DOT":-1.55e-6,"MEAN_MOTION_DDOT":0},{"OBJECT_NAME":"UPPER FREE FLYER","OBJECT_ID":"2018-099F","EPOCH":"2026-03-09T16:53:56.769792","MEAN_MOTION":15.10728091,"ECCENTRICITY":0.00115819,"INCLINATION":97.4495,"RA_OF_ASC_NODE":120.4613,"ARG_OF_PERICENTER":289.4209,"MEAN_ANOMALY":70.5769,"EPHEMERIS_TYPE":0,"CLASSIFICATION_TYPE":"U","NORAD_CAT_ID":43763,"ELEMENT_SET_NO":999,"REV_AT_EPOCH":39752,"BSTAR":0.00029221901,"MEAN_MOTION_DOT":4.788e-5,"MEAN_MOTION_DDOT":0}]
